{"type": "FeatureCollection", "features": [ {"type": "Feature", "properties": {"norad_id": 40938, "name": "BEIDOU-3S IGSO-2S (C56)", "group": "gnss", "lat": -15.301749409966883, "lon": -112.52741739514805, "alt_km": 36013.42074641697, "timestamp": "2025-12-15T04:01:20.695537+00:00", "meta": {"OBJECT_NAME": "BEIDOU-3S IGSO-2S (C56)", "OBJECT_ID": "2015-053A", "EPOCH": "2025-12-13T17:20:05.936352", "MEAN_MOTION": 1.00270015, "ECCENTRICITY": 0.00607751, "INCLINATION": 49.509, "RA_OF_ASC_NODE": 260.9931, "ARG_OF_PERICENTER": 188.8137, "MEAN_ANOMALY": 348.8662, "EPHEMERIS_TYPE": 0, "CLASSIFICATION_TYPE": "U", "NORAD_CAT_ID": 40938, "ELEMENT_SET_NO": 999, "REV_AT_EPOCH": 3749, "BSTAR": 0, "MEAN_MOTION_DOT": -1.56e-06, "MEAN_MOTION_DDOT": 0}, "tle": {"line1": "1 40938U 15053A   25347.72229093 -.00000156  00000+0  00000+0 0  9994", "line2": "2 40938  49.5090 260.9931 0060775 188.8137 348.8662  1.00270015 37490"}}, "geometry": {"type": "Point", "coordinates": [-112.52741739514805, -15.301749409966883]}}, {"type": "Feature", "properties": {"norad_id": 41019, "name": "GPS BIIF-11 (PRN 10)", "group": "gnss", "lat": -56.01732479829969, "lon": -66.30530141445658, "alt_km": 19937.074970095608, "timestamp": "2025-12-15T04:01:20.695549+00:00", "meta": {"OBJECT_NAME": "GPS BIIF-11 (PRN 10)", "OBJECT_ID": "2015-062A", "EPOCH": "2025-12-12T19:26:17.014560", "MEAN_MOTION": 2.00567164, "ECCENTRICITY": 0.01108438, "INCLINATION": 56.8322, "RA_OF_ASC_NODE": 37.9995, "ARG_OF_PERICENTER": 229.9503, "MEAN_ANOMALY": 129.1214, "EPHEMERIS_TYPE": 0, "CLASSIFICATION_TYPE": "U", "NORAD_CAT_ID": 41019, "ELEMENT_SET_NO": 999, "REV_AT_EPOCH": 7409, "BSTAR": 0, "MEAN_MOTION_DOT": -9.6e-07, "MEAN_MOTION_DDOT": 0}, "tle": {"line1": "1 41019U 15062A   25346.80991915 -.00000096  00000+0  00000+0 0  9995", "line2": "2 41019  56.8322  37.9995 0110843 229.9503 129.1214  2.00567164 74093"}}, "geometry": {"type": "Point", "coordinates": [-66.30530141445658, -56.01732479829969]}}, {"type": "Feature", "properties": {"norad_id": 41028, "name": "GSAT-15 (GAGAN/PRN 139)", "group": "gnss", "lat": -0.03641026451656182, "lon": -122.09467891436977, "alt_km": 35774.509029494846, "timestamp": "2025-12-15T04:01:20.695561+00:00", "meta": {"OBJECT_NAME": "GSAT-15 (GAGAN/PRN 139)", "OBJECT_ID": "2015-065A", "EPOCH": "2025-12-14T07:00:56.757312", "MEAN_MOTION": 1.00271589, "ECCENTRICITY": 0.0002799, "INCLINATION": 0.0419, "RA_OF_ASC_NODE": 266.7902, "ARG_OF_PERICENTER": 322.8731, "MEAN_ANOMALY": 52.2866, "EPHEMERIS_TYPE": 0, "CLASSIFICATION_TYPE": "U", "NORAD_CAT_ID": 41028, "ELEMENT_SET_NO": 999, "REV_AT_EPOCH": 3694, "BSTAR": 0, "MEAN_MOTION_DOT": -2.4e-06, "MEAN_MOTION_DDOT": 0}, "tle": {"line1": "1 41028U 15065A   25348.29232358 -.00000240  00000+0  00000+0 0  9993", "line2": "2 41028   0.0419 266.7902 0002799 322.8731  52.2866  1.00271589 36940"}}, "geometry": {"type": "Point", "coordinates": [-122.09467891436977, -0.03641026451656182]}}, {"type": "Feature", "properties": {"norad_id": 41174, "name": "GSAT0209 (GALILEO 12)", "group": "gnss", "lat": -11.570380912744106, "lon": -65.6770105264928, "alt_km": 23230.430967773107, "timestamp": "2025-12-15T04:01:20.695573+00:00", "meta": {"OBJECT_NAME": "GSAT0209 (GALILEO 12)", "OBJECT_ID": "2015-079A", "EPOCH": "2025-12-13T16:16:46.046208", "MEAN_MOTION": 1.70474514, "ECCENTRICITY": 0.00024314, "INCLINATION": 55.7133, "RA_OF_ASC_NODE": 106.3552, "ARG_OF_PERICENTER": 349.5598, "MEAN_ANOMALY": 10.4024, "EPHEMERIS_TYPE": 0, "CLASSIFICATION_TYPE": "U", "NORAD_CAT_ID": 41174, "ELEMENT_SET_NO": 999, "REV_AT_EPOCH": 6161, "BSTAR": 0, "MEAN_MOTION_DOT": -1e-08, "MEAN_MOTION_DDOT": 0}, "tle": {"line1": "1 41174U 15079A   25347.67831072 -.00000001  00000+0  00000+0 0  9994", "line2": "2 41174  55.7133 106.3552 0002431 349.5598  10.4024  1.70474514 61616"}}, "geometry": {"type": "Point", "coordinates": [-65.6770105264928, -11.570380912744106]}}, {"type": "Feature", "properties": {"norad_id": 41175, "name": "GSAT0208 (GALILEO 11)", "group": "gnss", "lat": 45.050379282431265, "lon": 149.36522060841415, "alt_km": 23214.03271881924, "timestamp": "2025-12-15T04:01:20.695589+00:00", "meta": {"OBJECT_NAME": "GSAT0208 (GALILEO 11)", "OBJECT_ID": "2015-079B", "EPOCH": "2025-12-12T17:24:26.771040", "MEAN_MOTION": 1.70474307, "ECCENTRICITY": 0.00018806, "INCLINATION": 55.7111, "RA_OF_ASC_NODE": 106.3784, "ARG_OF_PERICENTER": 358.3144, "MEAN_ANOMALY": 1.6545, "EPHEMERIS_TYPE": 0, "CLASSIFICATION_TYPE": "U", "NORAD_CAT_ID": 41175, "ELEMENT_SET_NO": 999, "REV_AT_EPOCH": 6201, "BSTAR": 0, "MEAN_MOTION_DOT": 4e-08, "MEAN_MOTION_DDOT": 0}, "tle": {"line1": "1 41175U 15079B   25346.72530985  .00000004  00000+0  00000+0 0  9991", "line2": "2 41175  55.7111 106.3784 0001880 358.3144   1.6545  1.70474307 62017"}}, "geometry": {"type": "Point", "coordinates": [149.36522060841415, 45.050379282431265]}}, {"type": "Feature", "properties": {"norad_id": 41241, "name": "IRNSS-1E", "group": "gnss", "lat": -7.4568915899723365, "lon": -105.89052514915721, "alt_km": 35695.301954150964, "timestamp": "2025-12-15T04:01:20.695603+00:00", "meta": {"OBJECT_NAME": "IRNSS-1E", "OBJECT_ID": "2016-003A", "EPOCH": "2025-12-12T20:06:57.569184", "MEAN_MOTION": 1.00273817, "ECCENTRICITY": 0.00218004, "INCLINATION": 32.8255, "RA_OF_ASC_NODE": 62.4521, "ARG_OF_PERICENTER": 187.6915, "MEAN_ANOMALY": 245.1684, "EPHEMERIS_TYPE": 0, "CLASSIFICATION_TYPE": "U", "NORAD_CAT_ID": 41241, "ELEMENT_SET_NO": 999, "REV_AT_EPOCH": 3621, "BSTAR": 0, "MEAN_MOTION_DOT": -3.05e-06, "MEAN_MOTION_DDOT": 0}, "tle": {"line1": "1 41241U 16003A   25346.83816631 -.00000305  00000+0  00000+0 0  9995", "line2": "2 41241  32.8255  62.4521 0021800 187.6915 245.1684  1.00273817 36218"}}, "geometry": {"type": "Point", "coordinates": [-105.89052514915721, -7.4568915899723365]}}, {"type": "Feature", "properties": {"norad_id": 41328, "name": "GPS BIIF-12 (PRN 32)", "group": "gnss", "lat": -17.289691210987595, "lon": -70.85651010048555, "alt_km": 20003.332006010856, "timestamp": "2025-12-15T04:01:20.695615+00:00", "meta": {"OBJECT_NAME": "GPS BIIF-12 (PRN 32)", "OBJECT_ID": "2016-007A", "EPOCH": "2025-12-13T09:23:04.524576", "MEAN_MOTION": 2.00560713, "ECCENTRICITY": 0.00921862, "INCLINATION": 55.4066, "RA_OF_ASC_NODE": 96.8311, "ARG_OF_PERICENTER": 243.5856, "MEAN_ANOMALY": 115.4531, "EPHEMERIS_TYPE": 0, "CLASSIFICATION_TYPE": "U", "NORAD_CAT_ID": 41328, "ELEMENT_SET_NO": 999, "REV_AT_EPOCH": 7211, "BSTAR": 0, "MEAN_MOTION_DOT": -1.9e-07, "MEAN_MOTION_DDOT": 0}, "tle": {"line1": "1 41328U 16007A   25347.39102459 -.00000019  00000+0  00000+0 0  9995", "line2": "2 41328  55.4066  96.8311 0092186 243.5856 115.4531  2.00560713 72118"}}, "geometry": {"type": "Point", "coordinates": [-70.85651010048555, -17.289691210987595]}}, {"type": "Feature", "properties": {"norad_id": 41330, "name": "COSMOS 2514 (751)", "group": "gnss", "lat": -45.22754086047093, "lon": 167.17464163731034, "alt_km": 19105.160967705913, "timestamp": "2025-12-15T04:01:20.695627+00:00", "meta": {"OBJECT_NAME": "COSMOS 2514 (751)", "OBJECT_ID": "2016-008A", "EPOCH": "2025-12-13T22:15:20.195712", "MEAN_MOTION": 2.13102653, "ECCENTRICITY": 0.00120546, "INCLINATION": 65.1331, "RA_OF_ASC_NODE": 319.3632, "ARG_OF_PERICENTER": 220.0811, "MEAN_ANOMALY": 139.8277, "EPHEMERIS_TYPE": 0, "CLASSIFICATION_TYPE": "U", "NORAD_CAT_ID": 41330, "ELEMENT_SET_NO": 999, "REV_AT_EPOCH": 7667, "BSTAR": 0, "MEAN_MOTION_DOT": -6.4e-07, "MEAN_MOTION_DDOT": 0}, "tle": {"line1": "1 41330U 16008A   25347.92731708 -.00000064  00000+0  00000+0 0  9993", "line2": "2 41330  65.1331 319.3632 0012054 220.0811 139.8277  2.13102653 76671"}}, "geometry": {"type": "Point", "coordinates": [167.17464163731034, -45.22754086047093]}}, {"type": "Feature", "properties": {"norad_id": 41384, "name": "IRNSS-1F", "group": "gnss", "lat": 4.721365270665707, "lon": 176.48099437783813, "alt_km": 35810.03726567024, "timestamp": "2025-12-15T04:01:20.695638+00:00", "meta": {"OBJECT_NAME": "IRNSS-1F", "OBJECT_ID": "2016-015A", "EPOCH": "2025-12-14T01:35:13.316640", "MEAN_MOTION": 1.00273232, "ECCENTRICITY": 0.00225765, "INCLINATION": 4.8841, "RA_OF_ASC_NODE": 101.2672, "ARG_OF_PERICENTER": 180.8191, "MEAN_ANOMALY": 217.0753, "EPHEMERIS_TYPE": 0, "CLASSIFICATION_TYPE": "U", "NORAD_CAT_ID": 41384, "ELEMENT_SET_NO": 999, "REV_AT_EPOCH": 3581, "BSTAR": 0, "MEAN_MOTION_DOT": 1.75e-06, "MEAN_MOTION_DDOT": 0}, "tle": {"line1": "1 41384U 16015A   25348.06612635  .00000175  00000+0  00000+0 0  9995", "line2": "2 41384   4.8841 101.2672 0022576 180.8191 217.0753  1.00273232 35818"}}, "geometry": {"type": "Point", "coordinates": [176.48099437783813, 4.721365270665707]}}, {"type": "Feature", "properties": {"norad_id": 41434, "name": "BEIDOU-2 IGSO-6 (C13)", "group": "gnss", "lat": -14.856952415319471, "lon": -131.27856283517963, "alt_km": 35565.89631416191, "timestamp": "2025-12-15T04:01:20.695650+00:00", "meta": {"OBJECT_NAME": "BEIDOU-2 IGSO-6 (C13)", "OBJECT_ID": "2016-021A", "EPOCH": "2025-12-11T15:29:12.615360", "MEAN_MOTION": 1.00293077, "ECCENTRICITY": 0.00608616, "INCLINATION": 59.9644, "RA_OF_ASC_NODE": 39.9082, "ARG_OF_PERICENTER": 229.9753, "MEAN_ANOMALY": 135.9177, "EPHEMERIS_TYPE": 0, "CLASSIFICATION_TYPE": "U", "NORAD_CAT_ID": 41434, "ELEMENT_SET_NO": 999, "REV_AT_EPOCH": 3560, "BSTAR": 0, "MEAN_MOTION_DOT": -1.62e-06, "MEAN_MOTION_DDOT": 0}, "tle": {"line1": "1 41434U 16021A   25345.64528490 -.00000162  00000+0  00000+0 0  9991", "line2": "2 41434  59.9644  39.9082 0060861 229.9753 135.9177  1.00293077 35600"}}, "geometry": {"type": "Point", "coordinates": [-131.27856283517963, -14.856952415319471]}}]}